COSMOS 2251 DEB         
1 35650U 93036ANR 17345.45128566  .00000688  00000-0  18641-3 0  9992
2 35650  74.0579 156.4223 0032749 249.9565 138.2032 14.49291055450830
